{
  "type": "FeatureCollection",
  "features": [
    {
      "type": "Feature",
      "properties": {
        "norad_id": 66800,
        "name": "STARLINK-35996",
        "group": "last-30-days",
        "lat": -2.868964904496039,
        "lon": -7.443598625725164,
        "alt_km": 415.2115397116868,
        "timestamp": "2025-12-26T12:57:37.976025+00:00",
        "meta_object_name": "STARLINK-35996",
        "meta_object_id": "2025-278K",
        "meta_epoch": "2025-12-26T06:00:02.999808",
        "meta_mean_motion": 15.50532518,
        "meta_eccentricity": 0.00016225,
        "meta_inclination": 43.0004,
        "meta_ra_of_asc_node": 171.1701,
        "meta_arg_of_pericenter": 270.2789,
        "meta_mean_anomaly": 93.2231,
        "meta_ephemeris_type": 0,
        "meta_classification_type": "U",
        "meta_norad_cat_id": 66800,
        "meta_element_set_no": 999,
        "meta_rev_at_epoch": 492,
        "meta_bstar": 0.00061576351,
        "meta_mean_motion_dot": 0.00035888,
        "meta_mean_motion_ddot": 0,
        "tle_line1": "1 66800U 25278K   25360.25003472  .00035888  00000+0  61576-3 0  9992",
        "tle_line2": "2 66800  43.0004 171.1701 0001622 270.2789  93.2231 15.50532518  4927"
      },
      "geometry": {
        "type": "Point",
        "coordinates": [
          -7.443598625725164,
          -2.868964904496039
        ]
      }
    },
    {
      "type": "Feature",
      "properties": {
        "norad_id": 66801,
        "name": "STARLINK-36080",
        "group": "last-30-days",
        "lat": -9.410396913806773,
        "lon": -0.30604766943520223,
        "alt_km": 415.6693210700614,
        "timestamp": "2025-12-26T12:57:37.976035+00:00",
        "meta_object_name": "STARLINK-36080",
        "meta_object_id": "2025-278L",
        "meta_epoch": "2025-12-26T04:23:56.632704",
        "meta_mean_motion": 15.50615065,
        "meta_eccentricity": 0.00029119,
        "meta_inclination": 42.9996,
        "meta_ra_of_asc_node": 171.5362,
        "meta_arg_of_pericenter": 283.2195,
        "meta_mean_anomaly": 76.834,
        "meta_ephemeris_type": 0,
        "meta_classification_type": "U",
        "meta_norad_cat_id": 66801,
        "meta_element_set_no": 999,
        "meta_rev_at_epoch": 394,
        "meta_bstar": 0.0018547908,
        "meta_mean_motion_dot": 0.00110164,
        "meta_mean_motion_ddot": 0,
        "tle_line1": "1 66801U 25278L   25360.18329436  .00110164  00000+0  18548-2 0  9997",
        "tle_line2": "2 66801  42.9996 171.5362 0002911 283.2195  76.8340 15.50615065  3948"
      },
      "geometry": {
        "type": "Point",
        "coordinates": [
          -0.30604766943520223,
          -9.410396913806773
        ]
      }
    },
    {
      "type": "Feature",
      "properties": {
        "norad_id": 66802,
        "name": "STARLINK-35604",
        "group": "last-30-days",
        "lat": -1.5559876730818616,
        "lon": -8.850802690633293,
        "alt_km": 415.0156432004087,
        "timestamp": "2025-12-26T12:57:37.976046+00:00",
        "meta_object_name": "STARLINK-35604",
        "meta_object_id": "2025-278M",
        "meta_epoch": "2025-12-26T06:00:02.999808",
        "meta_mean_motion": 15.50525192,
        "meta_eccentricity": 0.00017218,
        "meta_inclination": 43.0005,
        "meta_ra_of_asc_node": 171.1753,
        "meta_arg_of_pericenter": 268.1526,
        "meta_mean_anomaly": 93.4225,
        "meta_ephemeris_type": 0,
        "meta_classification_type": "U",
        "meta_norad_cat_id": 66802,
        "meta_element_set_no": 999,
        "meta_rev_at_epoch": 513,
        "meta_bstar": 0.0010745749,
        "meta_mean_motion_dot": 0.00063087,
        "meta_mean_motion_ddot": 0,
        "tle_line1": "1 66802U 25278M   25360.25003472  .00063087  00000+0  10746-2 0  9998",
        "tle_line2": "2 66802  43.0005 171.1753 0001721 268.1526  93.4225 15.50525192  5131"
      },
      "geometry": {
        "type": "Point",
        "coordinates": [
          -8.850802690633293,
          -1.5559876730818616
        ]
      }
    },
    {
      "type": "Feature",
      "properties": {
        "norad_id": 66803,
        "name": "STARLINK-35565",
        "group": "last-30-days",
        "lat": 29.654772943780202,
        "lon": -48.06243919130238,
        "alt_km": 440.3507416361035,
        "timestamp": "2025-12-26T12:57:37.976056+00:00",
        "meta_object_name": "STARLINK-35565",
        "meta_object_id": "2025-278N",
        "meta_epoch": "2025-12-26T06:00:02.999808",
        "meta_mean_motion": 15.40673674,
        "meta_eccentricity": 0.00018955,
        "meta_inclination": 43.0007,
        "meta_ra_of_asc_node": 171.2683,
        "meta_arg_of_pericenter": 270.9585,
        "meta_mean_anomaly": 52.1541,
        "meta_ephemeris_type": 0,
        "meta_classification_type": "U",
        "meta_norad_cat_id": 66803,
        "meta_element_set_no": 999,
        "meta_rev_at_epoch": 521,
        "meta_bstar": 0.00050871688,
        "meta_mean_motion_dot": 0.00020987,
        "meta_mean_motion_ddot": 0,
        "tle_line1": "1 66803U 25278N   25360.25003472  .00020987  00000+0  50872-3 0  9996",
        "tle_line2": "2 66803  43.0007 171.2683 0001895 270.9585  52.1541 15.40673674  5215"
      },
      "geometry": {
        "type": "Point",
        "coordinates": [
          -48.06243919130238,
          29.654772943780202
        ]
      }
    },
    {
      "type": "Feature",
      "properties": {
        "norad_id": 66804,
        "name": "STARLINK-36038",
        "group": "last-30-days",
        "lat": 22.41430672335432,
        "lon": -36.70343847761919,
        "alt_km": 440.28415790630515,
        "timestamp": "2025-12-26T12:57:37.976068+00:00",
        "meta_object_name": "STARLINK-36038",
        "meta_object_id": "2025-278P",
        "meta_epoch": "2025-12-26T06:00:02.999808",
        "meta_mean_motion": 15.42351082,
        "meta_eccentricity": 0.00016149,
        "meta_inclination": 43.0008,
        "meta_ra_of_asc_node": 171.2411,
        "meta_arg_of_pericenter": 257.5593,
        "meta_mean_anomaly": 77.0665,
        "meta_ephemeris_type": 0,
        "meta_classification_type": "U",
        "meta_norad_cat_id": 66804,
        "meta_element_set_no": 999,
        "meta_rev_at_epoch": 513,
        "meta_bstar": -0.056983691,
        "meta_mean_motion_dot": -0.0225282,
        "meta_mean_motion_ddot": 0,
        "tle_line1": "1 66804U 25278P   25360.25003472 -.02252820  00000+0 -56984-1 0  9992",
        "tle_line2": "2 66804  43.0008 171.2411 0001614 257.5593  77.0665 15.42351082  5137"
      },
      "geometry": {
        "type": "Point",
        "coordinates": [
          -36.70343847761919,
          22.41430672335432
        ]
      }
    },
    {
      "type": "Feature",
      "properties": {
        "norad_id": 66805,
        "name": "STARLINK-36049",
        "group": "last-30-days",
        "lat": 7.630463920376189,
        "lon": -18.754050303831498,
        "alt_km": 436.1102992371143,
        "timestamp": "2025-12-26T12:57:37.976078+00:00",
        "meta_object_name": "STARLINK-36049",
        "meta_object_id": "2025-278Q",
        "meta_epoch": "2025-12-26T06:00:02.999808",
        "meta_mean_motion": 15.44300368,
        "meta_eccentricity": 0.00017049,
        "meta_inclination": 42.9998,
        "meta_ra_of_asc_node": 171.1908,
        "meta_arg_of_pericenter": 260.2329,
        "meta_mean_anomaly": 95.0626,
        "meta_ephemeris_type": 0,
        "meta_classification_type": "U",
        "meta_norad_cat_id": 66805,
        "meta_element_set_no": 999,
        "meta_rev_at_epoch": 513,
        "meta_bstar": -0.049516886,
        "meta_mean_motion_dot": -0.02072409,
        "meta_mean_motion_ddot": 0,
        "tle_line1": "1 66805U 25278Q   25360.25003472 -.02072409  00000+0 -49517-1 0  9990",
        "tle_line2": "2 66805  42.9998 171.1908 0001704 260.2329  95.0626 15.44300368  5132"
      },
      "geometry": {
        "type": "Point",
        "coordinates": [
          -18.754050303831498,
          7.630463920376189
        ]
      }
    },
    {
      "type": "Feature",
      "properties": {
        "norad_id": 66806,
        "name": "STARLINK-36069",
        "group": "last-30-days",
        "lat": -6.774888333334508,
        "lon": -3.216586062352986,
        "alt_km": 415.4960321628987,
        "timestamp": "2025-12-26T12:57:37.976088+00:00",
        "meta_object_name": "STARLINK-36069",
        "meta_object_id": "2025-278R",
        "meta_epoch": "2025-12-26T06:00:02.999808",
        "meta_mean_motion": 15.50624715,
        "meta_eccentricity": 0.00019686,
        "meta_inclination": 43.0002,
        "meta_ra_of_asc_node": 171.1557,
        "meta_arg_of_pericenter": 267.2819,
        "meta_mean_anomaly": 101.9346,
        "meta_ephemeris_type": 0,
        "meta_classification_type": "U",
        "meta_norad_cat_id": 66806,
        "meta_element_set_no": 999,
        "meta_rev_at_epoch": 492,
        "meta_bstar": -0.0023497328,
        "meta_mean_motion_dot": -0.00136051,
        "meta_mean_motion_ddot": 0,
        "tle_line1": "1 66806U 25278R   25360.25003472 -.00136051  00000+0 -23497-2 0  9993",
        "tle_line2": "2 66806  43.0002 171.1557 0001968 267.2819 101.9346 15.50624715  4928"
      },
      "geometry": {
        "type": "Point",
        "coordinates": [
          -3.216586062352986,
          -6.774888333334508
        ]
      }
    }
  ]
}